{
  "type": "FeatureCollection",
  "features": [
    {
      "type": "Feature",
      "properties": {
        "norad_id": 35220,
        "name": "FENGYUN 1C DEB",
        "group": "fengyun-1c-debris",
        "lat": 57.45906520667214,
        "lon": -112.30178993973254,
        "alt_km": 840.9495538089441,
        "timestamp": "2025-12-09T07:41:33.496644+00:00",
        "meta_object_name": "FENGYUN 1C DEB",
        "meta_object_id": "1999-025DQC",
        "meta_epoch": "2025-12-03T04:15:21.001824",
        "meta_mean_motion": 14.22451281,
        "meta_eccentricity": 0.0043073,
        "meta_inclination": 99.0282,
        "meta_ra_of_asc_node": 46.9795,
        "meta_arg_of_pericenter": 335.8269,
        "meta_mean_anomaly": 24.0886,
        "meta_ephemeris_type": 0,
        "meta_classification_type": "U",
        "meta_norad_cat_id": 35220,
        "meta_element_set_no": 999,
        "meta_rev_at_epoch": 63047,
        "meta_bstar": 0.0020517631,
        "meta_mean_motion_dot": 4.572e-05,
        "meta_mean_motion_ddot": 0,
        "tle_line1": "1 35220U 99025DQC 25337.17732641  .00004572  00000+0  20518-2 0  9993",
        "tle_line2": "2 35220  99.0282  46.9795 0043073 335.8269  24.0886 14.22451281630475"
      },
      "geometry": {
        "type": "Point",
        "coordinates": [
          -112.30178993973254,
          57.45906520667214
        ]
      }
    },
    {
      "type": "Feature",
      "properties": {
        "norad_id": 35223,
        "name": "FENGYUN 1C DEB",
        "group": "fengyun-1c-debris",
        "lat": -27.939027164422622,
        "lon": -29.836799581510547,
        "alt_km": 517.682262001078,
        "timestamp": "2025-12-09T07:41:33.496654+00:00",
        "meta_object_name": "FENGYUN 1C DEB",
        "meta_object_id": "1999-025DQF",
        "meta_epoch": "2025-12-07T21:56:42.228096",
        "meta_mean_motion": 14.88831664,
        "meta_eccentricity": 0.01290174,
        "meta_inclination": 98.972,
        "meta_ra_of_asc_node": 323.7649,
        "meta_arg_of_pericenter": 341.9743,
        "meta_mean_anomaly": 17.6916,
        "meta_ephemeris_type": 0,
        "meta_classification_type": "U",
        "meta_norad_cat_id": 35223,
        "meta_element_set_no": 999,
        "meta_rev_at_epoch": 93810,
        "meta_bstar": 0.0012358493,
        "meta_mean_motion_dot": 0.0001347,
        "meta_mean_motion_ddot": 0,
        "tle_line1": "1 35223U 99025DQF 25341.91437764  .00013470  00000+0  12358-2 0  9991",
        "tle_line2": "2 35223  98.9720 323.7649 0129017 341.9743  17.6916 14.88831664938107"
      },
      "geometry": {
        "type": "Point",
        "coordinates": [
          -29.836799581510547,
          -27.939027164422622
        ]
      }
    },
    {
      "type": "Feature",
      "properties": {
        "norad_id": 35229,
        "name": "FENGYUN 1C DEB",
        "group": "fengyun-1c-debris",
        "lat": 71.31254735305504,
        "lon": 36.141923725399586,
        "alt_km": 714.649667747578,
        "timestamp": "2025-12-09T07:41:33.496664+00:00",
        "meta_object_name": "FENGYUN 1C DEB",
        "meta_object_id": "1999-025DQM",
        "meta_epoch": "2025-12-08T23:08:00.019104",
        "meta_mean_motion": 14.60344709,
        "meta_eccentricity": 0.00474892,
        "meta_inclination": 98.4583,
        "meta_ra_of_asc_node": 61.8783,
        "meta_arg_of_pericenter": 226.2462,
        "meta_mean_anomaly": 133.4802,
        "meta_ephemeris_type": 0,
        "meta_classification_type": "U",
        "meta_norad_cat_id": 35229,
        "meta_element_set_no": 999,
        "meta_rev_at_epoch": 64451,
        "meta_bstar": 0.0069250328,
        "meta_mean_motion_dot": 0.00034127,
        "meta_mean_motion_ddot": 0,
        "tle_line1": "1 35229U 99025DQM 25342.96388911  .00034127  00000+0  69250-2 0  9997",
        "tle_line2": "2 35229  98.4583  61.8783 0047489 226.2462 133.4802 14.60344709644518"
      },
      "geometry": {
        "type": "Point",
        "coordinates": [
          36.141923725399586,
          71.31254735305504
        ]
      }
    },
    {
      "type": "Feature",
      "properties": {
        "norad_id": 35231,
        "name": "FENGYUN 1C DEB",
        "group": "fengyun-1c-debris",
        "lat": -65.63288359035428,
        "lon": -173.2449346514144,
        "alt_km": 875.4719192220082,
        "timestamp": "2025-12-09T07:41:33.496674+00:00",
        "meta_object_name": "FENGYUN 1C DEB",
        "meta_object_id": "1999-025DQP",
        "meta_epoch": "2025-12-08T13:33:16.551360",
        "meta_mean_motion": 14.14527899,
        "meta_eccentricity": 0.0038029,
        "meta_inclination": 98.7211,
        "meta_ra_of_asc_node": 25.8267,
        "meta_arg_of_pericenter": 96.7145,
        "meta_mean_anomaly": 263.8358,
        "meta_ephemeris_type": 0,
        "meta_classification_type": "U",
        "meta_norad_cat_id": 35231,
        "meta_element_set_no": 999,
        "meta_rev_at_epoch": 91443,
        "meta_bstar": 4.8417e-05,
        "meta_mean_motion_dot": 5.1e-07,
        "meta_mean_motion_ddot": 0,
        "tle_line1": "1 35231U 99025DQP 25342.56477490  .00000051  00000+0  48417-4 0  9990",
        "tle_line2": "2 35231  98.7211  25.8267 0038029  96.7145 263.8358 14.14527899914434"
      },
      "geometry": {
        "type": "Point",
        "coordinates": [
          -173.2449346514144,
          -65.63288359035428
        ]
      }
    },
    {
      "type": "Feature",
      "properties": {
        "norad_id": 35233,
        "name": "FENGYUN 1C DEB",
        "group": "fengyun-1c-debris",
        "lat": -12.665640398105282,
        "lon": 84.34439080771158,
        "alt_km": 749.7841953306242,
        "timestamp": "2025-12-09T07:41:33.496685+00:00",
        "meta_object_name": "FENGYUN 1C DEB",
        "meta_object_id": "1999-025DQR",
        "meta_epoch": "2025-12-08T05:14:28.388832",
        "meta_mean_motion": 14.4177986,
        "meta_eccentricity": 0.00412391,
        "meta_inclination": 98.7708,
        "meta_ra_of_asc_node": 81.2245,
        "meta_arg_of_pericenter": 274.5532,
        "meta_mean_anomaly": 114.9681,
        "meta_ephemeris_type": 0,
        "meta_classification_type": "U",
        "meta_norad_cat_id": 35233,
        "meta_element_set_no": 999,
        "meta_rev_at_epoch": 91111,
        "meta_bstar": 0.002497777,
        "meta_mean_motion_dot": 8.202e-05,
        "meta_mean_motion_ddot": 0,
        "tle_line1": "1 35233U 99025DQR 25342.21838413  .00008202  00000+0  24978-2 0  9990",
        "tle_line2": "2 35233  98.7708  81.2245 0041239 274.5532 114.9681 14.41779860911116"
      },
      "geometry": {
        "type": "Point",
        "coordinates": [
          84.34439080771158,
          -12.665640398105282
        ]
      }
    },
    {
      "type": "Feature",
      "properties": {
        "norad_id": 35234,
        "name": "FENGYUN 1C DEB",
        "group": "fengyun-1c-debris",
        "lat": 1.428994098981472,
        "lon": -168.47820249384242,
        "alt_km": 683.6134136801402,
        "timestamp": "2025-12-09T07:41:33.496695+00:00",
        "meta_object_name": "FENGYUN 1C DEB",
        "meta_object_id": "1999-025DQS",
        "meta_epoch": "2025-12-08T19:24:00.899136",
        "meta_mean_motion": 14.65517814,
        "meta_eccentricity": 0.00998032,
        "meta_inclination": 98.0678,
        "meta_ra_of_asc_node": 10.8162,
        "meta_arg_of_pericenter": 275.0297,
        "meta_mean_anomaly": 83.952,
        "meta_ephemeris_type": 0,
        "meta_classification_type": "U",
        "meta_norad_cat_id": 35234,
        "meta_element_set_no": 999,
        "meta_rev_at_epoch": 94298,
        "meta_bstar": 0.00094774779,
        "meta_mean_motion_dot": 5.479e-05,
        "meta_mean_motion_ddot": 0,
        "tle_line1": "1 35234U 99025DQS 25342.80834374  .00005479  00000+0  94775-3 0  9994",
        "tle_line2": "2 35234  98.0678  10.8162 0099803 275.0297  83.9520 14.65517814942987"
      },
      "geometry": {
        "type": "Point",
        "coordinates": [
          -168.47820249384242,
          1.428994098981472
        ]
      }
    },
    {
      "type": "Feature",
      "properties": {
        "norad_id": 35239,
        "name": "FENGYUN 1C DEB",
        "group": "fengyun-1c-debris",
        "lat": -51.261403395231866,
        "lon": 155.8623795009951,
        "alt_km": 951.7009138204767,
        "timestamp": "2025-12-09T07:41:33.496705+00:00",
        "meta_object_name": "FENGYUN 1C DEB",
        "meta_object_id": "1999-025DQX",
        "meta_epoch": "2025-12-08T21:25:00.742080",
        "meta_mean_motion": 13.69204072,
        "meta_eccentricity": 0.02298278,
        "meta_inclination": 99.2631,
        "meta_ra_of_asc_node": 143.7136,
        "meta_arg_of_pericenter": 20.3789,
        "meta_mean_anomaly": 340.6348,
        "meta_ephemeris_type": 0,
        "meta_classification_type": "U",
        "meta_norad_cat_id": 35239,
        "meta_element_set_no": 999,
        "meta_rev_at_epoch": 58078,
        "meta_bstar": 0.0011462717,
        "meta_mean_motion_dot": 1.153e-05,
        "meta_mean_motion_ddot": 0,
        "tle_line1": "1 35239U 99025DQX 25342.89236970  .00001153  00000+0  11463-2 0  9993",
        "tle_line2": "2 35239  99.2631 143.7136 0229827  20.3789 340.6348 13.69204072580788"
      },
      "geometry": {
        "type": "Point",
        "coordinates": [
          155.8623795009951,
          -51.261403395231866
        ]
      }
    }
  ]
}